[{"OBJECT_NAME":"STARLINK-35269","OBJECT_ID":"2025-207B","EPOCH":"2026-03-09T18:20:29.294880","MEAN_MOTION":15.05645312,"ECCENTRICITY":7.35e-5,"INCLINATION":97.6016,"RA_OF_ASC_NODE":138.7535,"ARG_OF_PERICENTER":91.3559,"MEAN_ANOMALY":268.7752,"EPHEMERIS_TYPE":0,"CLASSIFICATION_TYPE":"U","NORAD_CAT_ID":65593,"ELEMENT_SET_NO":999,"REV_AT_EPOCH":2826,"BSTAR":0.00011360993,"MEAN_MOTION_DOT":1.579e-5,"MEAN_MOTION_DDOT":0},{"OBJECT_NAME":"THOR ABLESTAR DEB","OBJECT_ID":"1961-015EX","EPOCH":"2026-03-09T22:58:31.837152","MEAN_MOTION":15.04262729,"ECCENTRICITY":0.00191468,"INCLINATION":67.4961,"RA_OF_ASC_NODE":12.7011,"ARG_OF_PERICENTER":32.2919,"MEAN_ANOMALY":327.9391,"EPHEMERIS_TYPE":0,"CLASSIFICATION_TYPE":"U","NORAD_CAT_ID":461,"ELEMENT_SET_NO":999,"REV_AT_EPOCH":37086,"BSTAR":0.0020469071,"MEAN_MOTION_DOT":0.00028661,"MEAN_MOTION_DDOT":0}]
